[{"OBJECT_NAME":"BUGSAT-1 (TITA)","OBJECT_ID":"2014-033E","EPOCH":"2026-03-09T23:14:58.322976","MEAN_MOTION":15.14502987,"ECCENTRICITY":0.00292569,"INCLINATION":98.0428,"RA_OF_ASC_NODE":155.8085,"ARG_OF_PERICENTER":157.4521,"MEAN_ANOMALY":202.8002,"EPHEMERIS_TYPE":0,"CLASSIFICATION_TYPE":"U","NORAD_CAT_ID":40014,"ELEMENT_SET_NO":999,"REV_AT_EPOCH":64081,"BSTAR":0.00030961592,"MEAN_MOTION_DOT":5.686e-5,"MEAN_MOTION_DDOT":0},{"OBJECT_NAME":"STARLINK-3641","OBJECT_ID":"2022-017W","EPOCH":"2026-03-09T23:26:44.761344","MEAN_MOTION":15.08815298,"ECCENTRICITY":0.00021368,"INCLINATION":53.2196,"RA_OF_ASC_NODE":347.8328,"ARG_OF_PERICENTER":45.198,"MEAN_ANOMALY":314.9186,"EPHEMERIS_TYPE":0,"CLASSIFICATION_TYPE":"U","NORAD_CAT_ID":51788,"ELEMENT_SET_NO":999,"REV_AT_EPOCH":22396,"BSTAR":6.3918065e-5,"MEAN_MOTION_DOT":7.29e-6,"MEAN_MOTION_DDOT":0}]
